[Satellite]
VERSION=1.1
NAME=ORBCOMM FM10 [+]
NICKNAME=ORBCOMM FM10 [+]
TLE1=1 25113U 97084B   17186.20236173  .00000107  00000-0  80835-4 0  9993
TLE2=2 25113  45.0172 142.9983 0007092 352.3555   7.7185 14.38562266197890
